[
    {
        "Altitude(m)": 703690.9135665947,
        "Argument of Periapsis(deg)": 0.005695060593313534,
        "Eccentricity": 0.0,
        "Inclination(deg)": 45.0,
        "Latitude(deg)": 26.203795930163547,
        "Longitude(deg)": -156.06387741139716,
        "Mean Anomaly(deg)": 38.49390832374039,
        "RAAN(deg)": 274.9946240292709,
        "Satellite Name": "Constellation 1 1212",
        "Satellite Number": 1212,
        "Semi-Major Axis(m)": 7083131.272910544,
        "Time(s)": 95
    },
    {
        "Altitude(m)": 703695.9994648932,
        "Argument of Periapsis(deg)": 0.00575500859955894,
        "Eccentricity": 0.0,
        "Inclination(deg)": 45.0,
        "Latitude(deg)": 26.24141358223259,
        "Longitude(deg)": -156.01478088552528,
        "Mean Anomaly(deg)": 38.55460946399033,
        "RAAN(deg)": 274.9945674401053,
        "Satellite Name": "Constellation 1 1212",
        "Satellite Number": 1212,
        "Semi-Major Axis(m)": 7083131.272910544,
        "Time(s)": 96
    },
    {
        "Altitude(m)": 703701.0936776141,
        "Argument of Periapsis(deg)": 0.005814956605804345,
        "Eccentricity": 0.0,
        "Inclination(deg)": 45.0,
        "Latitude(deg)": 26.27901133647769,
        "Longitude(deg)": -155.96564994855908,
        "Mean Anomaly(deg)": 38.61531060424022,
        "RAAN(deg)": 274.9945108509398,
        "Satellite Name": "Constellation 1 1212",
        "Satellite Number": 1212,
        "Semi-Major Axis(m)": 7083131.272910544,
        "Time(s)": 97
    },
    {
        "Altitude(m)": 703706.1961669262,
        "Argument of Periapsis(deg)": 0.00587490461204975,
        "Eccentricity": 0.0,
        "Inclination(deg)": 45.0,
        "Latitude(deg)": 26.316589147667834,
        "Longitude(deg)": -155.91648470796912,
        "Mean Anomaly(deg)": 38.676011744490104,
        "RAAN(deg)": 274.9944542617742,
        "Satellite Name": "Constellation 1 1212",
        "Satellite Number": 1212,
        "Semi-Major Axis(m)": 7083131.272910544,
        "Time(s)": 98
    },
    {
        "Altitude(m)": 703711.3068949624,
        "Argument of Periapsis(deg)": 0.005934852618295156,
        "Eccentricity": 0.0,
        "Inclination(deg)": 45.0,
        "Latitude(deg)": 26.35414697050557,
        "Longitude(deg)": -155.86728510313455,
        "Mean Anomaly(deg)": 38.736712884739994,
        "RAAN(deg)": 274.9943976726086,
        "Satellite Name": "Constellation 1 1212",
        "Satellite Number": 1212,
        "Semi-Major Axis(m)": 7083131.272910544,
        "Time(s)": 99
    },
    {
        "Altitude(m)": 703716.4258238389,
        "Argument of Periapsis(deg)": 0.005994800624540561,
        "Eccentricity": 0.0,
        "Inclination(deg)": 45.0,
        "Latitude(deg)": 26.39168475962715,
        "Longitude(deg)": -155.8180510734404,
        "Mean Anomaly(deg)": 38.79741402498993,
        "RAAN(deg)": 274.99434108344303,
        "Satellite Name": "Constellation 1 1212",
        "Satellite Number": 1212,
        "Semi-Major Axis(m)": 7083131.272910544,
        "Time(s)": 100
    },
    {
        "Altitude(m)": 703721.5529156497,
        "Argument of Periapsis(deg)": 0.006054748630785968,
        "Eccentricity": 0.0,
        "Inclination(deg)": 45.0,
        "Latitude(deg)": 26.42920246960252,
        "Longitude(deg)": -155.76878255827793,
        "Mean Anomaly(deg)": 38.85811516523982,
        "RAAN(deg)": 274.99428449427745,
        "Satellite Name": "Constellation 1 1212",
        "Satellite Number": 1212,
        "Semi-Major Axis(m)": 7083131.272910544,
        "Time(s)": 101
    },
    {
        "Altitude(m)": 703726.6881324578,
        "Argument of Periapsis(deg)": 0.006114696637031373,
        "Eccentricity": 0.0,
        "Inclination(deg)": 45.0,
        "Latitude(deg)": 26.46670005493516,
        "Longitude(deg)": -155.71947949704537,
        "Mean Anomaly(deg)": 38.9188163054897,
        "RAAN(deg)": 274.9942279051119,
        "Satellite Name": "Constellation 1 1212",
        "Satellite Number": 1212,
        "Semi-Major Axis(m)": 7083131.272910544,
        "Time(s)": 102
    },
    {
        "Altitude(m)": 703731.8314363082,
        "Argument of Periapsis(deg)": 0.006174644643276778,
        "Eccentricity": 0.0,
        "Inclination(deg)": 45.0,
        "Latitude(deg)": 26.504177470062018,
        "Longitude(deg)": -155.67014182914767,
        "Mean Anomaly(deg)": 38.97951744573964,
        "RAAN(deg)": 274.99417131594635,
        "Satellite Name": "Constellation 1 1212",
        "Satellite Number": 1212,
        "Semi-Major Axis(m)": 7083131.272910544,
        "Time(s)": 103
    },
    {
        "Altitude(m)": 703736.9827892173,
        "Argument of Periapsis(deg)": 0.006234592649522184,
        "Eccentricity": 0.0,
        "Inclination(deg)": 45.0,
        "Latitude(deg)": 26.54163466935376,
        "Longitude(deg)": -155.62076966209452,
        "Mean Anomaly(deg)": 39.04021858598953,
        "RAAN(deg)": 274.99411472678077,
        "Satellite Name": "Constellation 1 1212",
        "Satellite Number": 1212,
        "Semi-Major Axis(m)": 7083131.272910544,
        "Time(s)": 104
    },
    {
        "Altitude(m)": 703742.1421531832,
        "Argument of Periapsis(deg)": 0.00629454065576759,
        "Eccentricity": 0.0,
        "Inclination(deg)": 45.0,
        "Latitude(deg)": 26.5790716071134,
        "Longitude(deg)": -155.5713625991124,
        "Mean Anomaly(deg)": 39.10091972623942,
        "RAAN(deg)": 274.9940581376152,
        "Satellite Name": "Constellation 1 1212",
        "Satellite Number": 1212,
        "Semi-Major Axis(m)": 7083131.272910544,
        "Time(s)": 105
    },
    {
        "Altitude(m)": 703747.3094901813,
        "Argument of Periapsis(deg)": 0.006354488662012995,
        "Eccentricity": 0.0,
        "Inclination(deg)": 45.0,
        "Latitude(deg)": 26.616488237578125,
        "Longitude(deg)": -155.52192074772674,
        "Mean Anomaly(deg)": 39.1616208664893,
        "RAAN(deg)": 274.99400154844966,
        "Satellite Name": "Constellation 1 1212",
        "Satellite Number": 1212,
        "Semi-Major Axis(m)": 7083131.272910544,
        "Time(s)": 106
    },
    {
        "Altitude(m)": 703752.484762161,
        "Argument of Periapsis(deg)": 0.006414436668258401,
        "Eccentricity": 0.0,
        "Inclination(deg)": 45.0,
        "Latitude(deg)": 26.653884514917838,
        "Longitude(deg)": -155.4724440473751,
        "Mean Anomaly(deg)": 39.22232200673919,
        "RAAN(deg)": 274.9939449592841,
        "Satellite Name": "Constellation 1 1212",
        "Satellite Number": 1212,
        "Semi-Major Axis(m)": 7083131.272910544,
        "Time(s)": 107
    },
    {
        "Altitude(m)": 703757.667931049,
        "Argument of Periapsis(deg)": 0.0064743846745038075,
        "Eccentricity": 0.0,
        "Inclination(deg)": 45.0,
        "Latitude(deg)": 26.691260393235634,
        "Longitude(deg)": -155.42293243750353,
        "Mean Anomaly(deg)": 39.28302314698912,
        "RAAN(deg)": 274.9938883701185,
        "Satellite Name": "Constellation 1 1212",
        "Satellite Number": 1212,
        "Semi-Major Axis(m)": 7083131.272910544,
        "Time(s)": 108
    },
    {
        "Altitude(m)": 703762.8589587561,
        "Argument of Periapsis(deg)": 0.0065343326807492125,
        "Eccentricity": 0.0,
        "Inclination(deg)": 45.0,
        "Latitude(deg)": 26.728615826567324,
        "Longitude(deg)": -155.3733858575679,
        "Mean Anomaly(deg)": 39.34372428723896,
        "RAAN(deg)": 274.9938317809529,
        "Satellite Name": "Constellation 1 1212",
        "Satellite Number": 1212,
        "Semi-Major Axis(m)": 7083131.272910544,
        "Time(s)": 109
    },
    {
        "Altitude(m)": 703768.0578071587,
        "Argument of Periapsis(deg)": 0.0065942806869946176,
        "Eccentricity": 0.0,
        "Inclination(deg)": 45.0,
        "Latitude(deg)": 26.765950768881794,
        "Longitude(deg)": -155.32380424703385,
        "Mean Anomaly(deg)": 39.404425427488896,
        "RAAN(deg)": 274.99377519178734,
        "Satellite Name": "Constellation 1 1212",
        "Satellite Number": 1212,
        "Semi-Major Axis(m)": 7083131.272910544,
        "Time(s)": 110
    },
    {
        "Altitude(m)": 703773.2644381241,
        "Argument of Periapsis(deg)": 0.006654228693240024,
        "Eccentricity": 0.0,
        "Inclination(deg)": 45.0,
        "Latitude(deg)": 26.803265174080884,
        "Longitude(deg)": -155.2741877134738,
        "Mean Anomaly(deg)": 39.465126567738835,
        "RAAN(deg)": 274.9937186026218,
        "Satellite Name": "Constellation 1 1212",
        "Satellite Number": 1212,
        "Semi-Major Axis(m)": 7083131.272910544,
        "Time(s)": 111
    },
    {
        "Altitude(m)": 703778.4788134902,
        "Argument of Periapsis(deg)": 0.006714176699485429,
        "Eccentricity": 0.0,
        "Inclination(deg)": 45.0,
        "Latitude(deg)": 26.840558995998144,
        "Longitude(deg)": -155.2245358601805,
        "Mean Anomaly(deg)": 39.525827707988675,
        "RAAN(deg)": 274.99366201345623,
        "Satellite Name": "Constellation 1 1212",
        "Satellite Number": 1212,
        "Semi-Major Axis(m)": 7083131.272910544,
        "Time(s)": 112
    },
    {
        "Altitude(m)": 703783.7008950736,
        "Argument of Periapsis(deg)": 0.006774124705730835,
        "Eccentricity": 0.0,
        "Inclination(deg)": 45.0,
        "Latitude(deg)": 26.877832188400816,
        "Longitude(deg)": -155.1748487947482,
        "Mean Anomaly(deg)": 39.58652884823856,
        "RAAN(deg)": 274.99360542429065,
        "Satellite Name": "Constellation 1 1212",
        "Satellite Number": 1212,
        "Semi-Major Axis(m)": 7083131.272910544,
        "Time(s)": 113
    }
]